[
    {
        "Altitude(m)": 571727.8893639386,
        "Argument of Periapsis(deg)": 0.019868973332140504,
        "Eccentricity": 0.0,
        "Inclination(deg)": 53.0,
        "Latitude(deg)": -52.84548221774411,
        "Longitude(deg)": 169.10535922343695,
        "Mean Anomaly(deg)": 264.82027860273274,
        "RAAN(deg)": 9.97043010558405,
        "Satellite Name": "Starlink Shell 1 58",
        "Satellite Number": 58,
        "Semi-Major Axis(m)": 6931778.249405717,
        "Time(s)": 570
    },
    {
        "Altitude(m)": 571754.6077145849,
        "Argument of Periapsis(deg)": 0.02021755181165174,
        "Eccentricity": 0.0,
        "Inclination(deg)": 53.0,
        "Latitude(deg)": -52.91493895174534,
        "Longitude(deg)": 170.0899530711795,
        "Mean Anomaly(deg)": 265.4471098062895,
        "RAAN(deg)": 9.969911335506579,
        "Satellite Name": "Starlink Shell 1 58",
        "Satellite Number": 58,
        "Semi-Major Axis(m)": 6931778.249405717,
        "Time(s)": 580
    },
    {
        "Altitude(m)": 571777.8811020411,
        "Argument of Periapsis(deg)": 0.020566130291162974,
        "Eccentricity": 0.0,
        "Inclination(deg)": 53.0,
        "Latitude(deg)": -52.975514258109726,
        "Longitude(deg)": 171.07761884163637,
        "Mean Anomaly(deg)": 266.07394100984624,
        "RAAN(deg)": 9.969392565429105,
        "Satellite Name": "Starlink Shell 1 58",
        "Satellite Number": 58,
        "Semi-Major Axis(m)": 6931778.249405717,
        "Time(s)": 590
    },
    {
        "Altitude(m)": 571797.700216312,
        "Argument of Periapsis(deg)": 0.020914708770674213,
        "Eccentricity": 0.0,
        "Inclination(deg)": 53.0,
        "Latitude(deg)": -53.02716415662028,
        "Longitude(deg)": 172.06794900065168,
        "Mean Anomaly(deg)": 266.7007722134029,
        "RAAN(deg)": 9.968873795351632,
        "Satellite Name": "Starlink Shell 1 58",
        "Satellite Number": 58,
        "Semi-Major Axis(m)": 6931778.249405717,
        "Time(s)": 600
    },
    {
        "Altitude(m)": 571814.0571254556,
        "Argument of Periapsis(deg)": 0.021263287250185448,
        "Eccentricity": 0.0,
        "Inclination(deg)": 53.0,
        "Latitude(deg)": -53.069850920824614,
        "Longitude(deg)": 173.06052826171214,
        "Mean Anomaly(deg)": 267.3276034169596,
        "RAAN(deg)": 9.968355025274159,
        "Satellite Name": "Starlink Shell 1 58",
        "Satellite Number": 58,
        "Semi-Major Axis(m)": 6931778.249405717,
        "Time(s)": 610
    },
    {
        "Altitude(m)": 571826.9452790297,
        "Argument of Periapsis(deg)": 0.021611865729696686,
        "Eccentricity": 0.0,
        "Inclination(deg)": 53.0,
        "Latitude(deg)": -53.10354321271168,
        "Longitude(deg)": 174.05493524337328,
        "Mean Anomaly(deg)": 267.95443462051634,
        "RAAN(deg)": 9.967836255196687,
        "Satellite Name": "Starlink Shell 1 58",
        "Satellite Number": 58,
        "Semi-Major Axis(m)": 6931778.249405717,
        "Time(s)": 620
    },
    {
        "Altitude(m)": 571836.3595109244,
        "Argument of Periapsis(deg)": 0.02196044420920792,
        "Eccentricity": 0.0,
        "Inclination(deg)": 53.0,
        "Latitude(deg)": -53.1282161955463,
        "Longitude(deg)": 175.0507424928781,
        "Mean Anomaly(deg)": 268.5812658240731,
        "RAAN(deg)": 9.967317485119214,
        "Satellite Name": "Starlink Shell 1 58",
        "Satellite Number": 58,
        "Semi-Major Axis(m)": 6931778.249405717,
        "Time(s)": 630
    },
    {
        "Altitude(m)": 571842.2960415973,
        "Argument of Periapsis(deg)": 0.02230902268871916,
        "Eccentricity": 0.0,
        "Inclination(deg)": 53.0,
        "Latitude(deg)": -53.143851623923524,
        "Longitude(deg)": 176.04751907020704,
        "Mean Anomaly(deg)": 269.2080970276298,
        "RAAN(deg)": 9.96679871504174,
        "Satellite Name": "Starlink Shell 1 58",
        "Satellite Number": 58,
        "Semi-Major Axis(m)": 6931778.249405717,
        "Time(s)": 640
    },
    {
        "Altitude(m)": 571844.7524797146,
        "Argument of Periapsis(deg)": 0.022657601168230398,
        "Eccentricity": 0.0,
        "Inclination(deg)": 53.0,
        "Latitude(deg)": -53.15043791027182,
        "Longitude(deg)": 177.04483064094399,
        "Mean Anomaly(deg)": 269.83492823118644,
        "RAAN(deg)": 9.966279944964269,
        "Satellite Name": "Starlink Shell 1 58",
        "Satellite Number": 58,
        "Semi-Major Axis(m)": 6931778.249405717,
        "Time(s)": 650
    },
    {
        "Altitude(m)": 571843.7278231848,
        "Argument of Periapsis(deg)": 0.023006179647741636,
        "Eccentricity": 0.0,
        "Inclination(deg)": 53.0,
        "Latitude(deg)": -53.1479701672462,
        "Longitude(deg)": 178.0422412712665,
        "Mean Anomaly(deg)": 270.4617594347432,
        "RAAN(deg)": 9.965761174886795,
        "Satellite Name": "Starlink Shell 1 58",
        "Satellite Number": 58,
        "Semi-Major Axis(m)": 6931778.249405717,
        "Time(s)": 660
    },
    {
        "Altitude(m)": 571839.2224595874,
        "Argument of Periapsis(deg)": 0.023354758127252868,
        "Eccentricity": 0.0,
        "Inclination(deg)": 53.0,
        "Latitude(deg)": -53.1364502256448,
        "Longitude(deg)": 179.0393152346879,
        "Mean Anomaly(deg)": 271.08859063829993,
        "RAAN(deg)": 9.965242404809322,
        "Satellite Name": "Starlink Shell 1 58",
        "Satellite Number": 58,
        "Semi-Major Axis(m)": 6931778.249405717,
        "Time(s)": 670
    },
    {
        "Altitude(m)": 571831.2381660236,
        "Argument of Periapsis(deg)": 0.023703336606764106,
        "Eccentricity": 0.0,
        "Inclination(deg)": 53.0,
        "Latitude(deg)": -53.115886627692554,
        "Longitude(deg)": -179.96438269189048,
        "Mean Anomaly(deg)": 271.7154218418567,
        "RAAN(deg)": 9.96472363473185,
        "Satellite Name": "Starlink Shell 1 58",
        "Satellite Number": 58,
        "Semi-Major Axis(m)": 6931778.249405717,
        "Time(s)": 680
    },
    {
        "Altitude(m)": 571819.7781083428,
        "Argument of Periapsis(deg)": 0.024051915086275345,
        "Eccentricity": 0.0,
        "Inclination(deg)": 53.0,
        "Latitude(deg)": -53.08629459575504,
        "Longitude(deg)": -178.96928542666325,
        "Mean Anomaly(deg)": 272.3422530454134,
        "RAAN(deg)": 9.964204864654377,
        "Satellite Name": "Starlink Shell 1 58",
        "Satellite Number": 58,
        "Semi-Major Axis(m)": 6931778.249405717,
        "Time(s)": 690
    },
    {
        "Altitude(m)": 571804.8468397732,
        "Argument of Periapsis(deg)": 0.024400493565786583,
        "Eccentricity": 0.0,
        "Inclination(deg)": 53.0,
        "Latitude(deg)": -53.04769597674809,
        "Longitude(deg)": -177.97582179830837,
        "Mean Anomaly(deg)": 272.9690842489701,
        "RAAN(deg)": 9.963686094576905,
        "Satellite Name": "Starlink Shell 1 58",
        "Satellite Number": 58,
        "Semi-Major Axis(m)": 6931778.249405717,
        "Time(s)": 700
    },
    {
        "Altitude(m)": 571786.450298966,
        "Argument of Periapsis(deg)": 0.024749072045297815,
        "Eccentricity": 0.0,
        "Inclination(deg)": 53.0,
        "Latitude(deg)": -53.00011916271554,
        "Longitude(deg)": -176.98441630041654,
        "Mean Anomaly(deg)": 273.5959154525268,
        "RAAN(deg)": 9.96316732449943,
        "Satellite Name": "Starlink Shell 1 58",
        "Satellite Number": 58,
        "Semi-Major Axis(m)": 6931778.249405717,
        "Time(s)": 710
    },
    {
        "Altitude(m)": 571764.595807421,
        "Argument of Periapsis(deg)": 0.025097650524809053,
        "Eccentricity": 0.0,
        "Inclination(deg)": 53.0,
        "Latitude(deg)": -52.94359898825495,
        "Longitude(deg)": -175.99548736811818,
        "Mean Anomaly(deg)": 274.22274665608353,
        "RAAN(deg)": 9.962648554421959,
        "Satellite Name": "Starlink Shell 1 58",
        "Satellite Number": 58,
        "Semi-Major Axis(m)": 6931778.249405717,
        "Time(s)": 720
    },
    {
        "Altitude(m)": 571739.2920663382,
        "Argument of Periapsis(deg)": 0.02544622900432029,
        "Eccentricity": 0.0,
        "Inclination(deg)": 53.0,
        "Latitude(deg)": -52.87817660565189,
        "Longitude(deg)": -175.00944569822263,
        "Mean Anomaly(deg)": 274.8495778596402,
        "RAAN(deg)": 9.962129784344487,
        "Satellite Name": "Starlink Shell 1 58",
        "Satellite Number": 58,
        "Semi-Major Axis(m)": 6931778.249405717,
        "Time(s)": 730
    },
    {
        "Altitude(m)": 571710.5491528412,
        "Argument of Periapsis(deg)": 0.02579480748383153,
        "Eccentricity": 0.0,
        "Inclination(deg)": 53.0,
        "Latitude(deg)": -52.80389933875946,
        "Longitude(deg)": -174.02669413359502,
        "Mean Anomaly(deg)": 275.4764090631969,
        "RAAN(deg)": 9.961611014267012,
        "Satellite Name": "Starlink Shell 1 58",
        "Satellite Number": 58,
        "Semi-Major Axis(m)": 6931778.249405717,
        "Time(s)": 740
    },
    {
        "Altitude(m)": 571678.3785156356,
        "Argument of Periapsis(deg)": 0.026143385963342765,
        "Eccentricity": 0.0,
        "Inclination(deg)": 53.0,
        "Latitude(deg)": -52.720820516828866,
        "Longitude(deg)": -173.04762609321193,
        "Mean Anomaly(deg)": 276.10324026675363,
        "RAAN(deg)": 9.96109224418954,
        "Satellite Name": "Starlink Shell 1 58",
        "Satellite Number": 58,
        "Semi-Major Axis(m)": 6931778.249405717,
        "Time(s)": 750
    }
]